{
  "norad_id": 63678,
  "name": "STARLINK-33861",
  "history": [
    {
      "epoch": "2026-03-28T19:45:10.141056",
      "apogee_km": 483.6096389829463,
      "perigee_km": 482.38369161963055,
      "latitude_deg": 35.74844259237529,
      "longitude_deg": -93.18873215978965,
      "semi_major_axis_km": 6861.133665301289,
      "eccentricity": 8.934e-05,
      "inclination_deg": 43.0015,
      "raan_deg": 283.0803,
      "arg_perigee_deg": 258.7398,
      "mean_anomaly_deg": 101.3353,
      "mean_motion_rev_day": 15.2759751
    }
  ]
}